{
  "type": "FeatureCollection",
  "features": [
    {
      "type": "Feature",
      "properties": {
        "norad_id": 29937,
        "name": "FENGYUN 1C DEB",
        "group": "fengyun-1c-debris",
        "lat": -72.52297752989912,
        "lon": 27.091181956689685,
        "alt_km": 899.6355665804795,
        "timestamp": "2025-12-02T06:27:53.286090+00:00",
        "meta_object_name": "FENGYUN 1C DEB",
        "meta_object_id": "1999-025JK",
        "meta_epoch": "2025-12-01T14:16:24.225312",
        "meta_mean_motion": 14.04354816,
        "meta_eccentricity": 0.00326995,
        "meta_inclination": 98.8035,
        "meta_ra_of_asc_node": 356.9531,
        "meta_arg_of_pericenter": 52.2204,
        "meta_mean_anomaly": 64.3909,
        "meta_ephemeris_type": 0,
        "meta_classification_type": "U",
        "meta_norad_cat_id": 29937,
        "meta_element_set_no": 999,
        "meta_rev_at_epoch": 96779,
        "meta_bstar": 0.00021300665,
        "meta_mean_motion_dot": 2.98e-06,
        "meta_mean_motion_ddot": 0,
        "tle_line1": "1 29937U 99025JK  25335.59472483  .00000298  00000+0  21301-3 0  9993",
        "tle_line2": "2 29937  98.8035 356.9531 0032699  52.2204  64.3909 14.04354816967796"
      },
      "geometry": {
        "type": "Point",
        "coordinates": [
          27.091181956689685,
          -72.52297752989912
        ]
      }
    },
    {
      "type": "Feature",
      "properties": {
        "norad_id": 29938,
        "name": "FENGYUN 1C DEB",
        "group": "fengyun-1c-debris",
        "lat": 79.81140844795904,
        "lon": -153.8938554431353,
        "alt_km": 870.6114526385318,
        "timestamp": "2025-12-02T06:27:53.286100+00:00",
        "meta_object_name": "FENGYUN 1C DEB",
        "meta_object_id": "1999-025JL",
        "meta_epoch": "2025-12-01T20:20:04.255872",
        "meta_mean_motion": 14.07448709,
        "meta_eccentricity": 0.0033361,
        "meta_inclination": 98.8018,
        "meta_ra_of_asc_node": 326.1426,
        "meta_arg_of_pericenter": 341.9616,
        "meta_mean_anomaly": 135.3319,
        "meta_ephemeris_type": 0,
        "meta_classification_type": "U",
        "meta_norad_cat_id": 29938,
        "meta_element_set_no": 999,
        "meta_rev_at_epoch": 96903,
        "meta_bstar": 0.00023201,
        "meta_mean_motion_dot": 3.49e-06,
        "meta_mean_motion_ddot": 0,
        "tle_line1": "1 29938U 99025JL  25335.84727148  .00000349  00000+0  23201-3 0  9991",
        "tle_line2": "2 29938  98.8018 326.1426 0033361 341.9616 135.3319 14.07448709969033"
      },
      "geometry": {
        "type": "Point",
        "coordinates": [
          -153.8938554431353,
          79.81140844795904
        ]
      }
    },
    {
      "type": "Feature",
      "properties": {
        "norad_id": 29939,
        "name": "FENGYUN 1C DEB",
        "group": "fengyun-1c-debris",
        "lat": -81.05919646129658,
        "lon": 53.153536549453534,
        "alt_km": 870.8374129026015,
        "timestamp": "2025-12-02T06:27:53.286110+00:00",
        "meta_object_name": "FENGYUN 1C DEB",
        "meta_object_id": "1999-025JM",
        "meta_epoch": "2025-12-01T19:34:01.068960",
        "meta_mean_motion": 14.12080996,
        "meta_eccentricity": 0.0066441,
        "meta_inclination": 98.7097,
        "meta_ra_of_asc_node": 335.7151,
        "meta_arg_of_pericenter": 169.3901,
        "meta_mean_anomaly": 314.8748,
        "meta_ephemeris_type": 0,
        "meta_classification_type": "U",
        "meta_norad_cat_id": 29939,
        "meta_element_set_no": 999,
        "meta_rev_at_epoch": 97306,
        "meta_bstar": 8.4529e-05,
        "meta_mean_motion_dot": 1.16e-06,
        "meta_mean_motion_ddot": 0,
        "tle_line1": "1 29939U 99025JM  25335.81529015  .00000116  00000+0  84529-4 0  9995",
        "tle_line2": "2 29939  98.7097 335.7151 0066441 169.3901 314.8748 14.12080996973069"
      },
      "geometry": {
        "type": "Point",
        "coordinates": [
          53.153536549453534,
          -81.05919646129658
        ]
      }
    },
    {
      "type": "Feature",
      "properties": {
        "norad_id": 29940,
        "name": "FENGYUN 1C DEB",
        "group": "fengyun-1c-debris",
        "lat": -3.417895627459485,
        "lon": 165.7194922797678,
        "alt_km": 800.7645661366541,
        "timestamp": "2025-12-02T06:27:53.286120+00:00",
        "meta_object_name": "FENGYUN 1C DEB",
        "meta_object_id": "1999-025JN",
        "meta_epoch": "2025-12-01T13:17:17.742912",
        "meta_mean_motion": 14.18776639,
        "meta_eccentricity": 0.00745603,
        "meta_inclination": 98.6217,
        "meta_ra_of_asc_node": 345.5428,
        "meta_arg_of_pericenter": 131.6913,
        "meta_mean_anomaly": 357.5704,
        "meta_ephemeris_type": 0,
        "meta_classification_type": "U",
        "meta_norad_cat_id": 29940,
        "meta_element_set_no": 999,
        "meta_rev_at_epoch": 97329,
        "meta_bstar": 0.00061981996,
        "meta_mean_motion_dot": 1.282e-05,
        "meta_mean_motion_ddot": 0,
        "tle_line1": "1 29940U 99025JN  25335.55367758  .00001282  00000+0  61982-3 0  9994",
        "tle_line2": "2 29940  98.6217 345.5428 0074560 131.6913 357.5704 14.18776639973299"
      },
      "geometry": {
        "type": "Point",
        "coordinates": [
          165.7194922797678,
          -3.417895627459485
        ]
      }
    },
    {
      "type": "Feature",
      "properties": {
        "norad_id": 29942,
        "name": "FENGYUN 1C DEB",
        "group": "fengyun-1c-debris",
        "lat": -31.720165267329588,
        "lon": 47.57401674422816,
        "alt_km": 763.8461665244395,
        "timestamp": "2025-12-02T06:27:53.286131+00:00",
        "meta_object_name": "FENGYUN 1C DEB",
        "meta_object_id": "1999-025JQ",
        "meta_epoch": "2025-12-01T17:10:57.408672",
        "meta_mean_motion": 14.3034669,
        "meta_eccentricity": 0.0048727,
        "meta_inclination": 98.6388,
        "meta_ra_of_asc_node": 41.6327,
        "meta_arg_of_pericenter": 309.0593,
        "meta_mean_anomaly": 50.6259,
        "meta_ephemeris_type": 0,
        "meta_classification_type": "U",
        "meta_norad_cat_id": 29942,
        "meta_element_set_no": 999,
        "meta_rev_at_epoch": 97711,
        "meta_bstar": 0.00072702,
        "meta_mean_motion_dot": 1.868e-05,
        "meta_mean_motion_ddot": 0,
        "tle_line1": "1 29942U 99025JQ  25335.71594223  .00001868  00000+0  72702-3 0  9995",
        "tle_line2": "2 29942  98.6388  41.6327 0048727 309.0593  50.6259 14.30346690977118"
      },
      "geometry": {
        "type": "Point",
        "coordinates": [
          47.57401674422816,
          -31.720165267329588
        ]
      }
    },
    {
      "type": "Feature",
      "properties": {
        "norad_id": 29943,
        "name": "FENGYUN 1C DEB",
        "group": "fengyun-1c-debris",
        "lat": -22.720215915074608,
        "lon": -11.965709339754794,
        "alt_km": 861.230726116456,
        "timestamp": "2025-12-02T06:27:53.286141+00:00",
        "meta_object_name": "FENGYUN 1C DEB",
        "meta_object_id": "1999-025JR",
        "meta_epoch": "2025-12-01T15:46:27.112800",
        "meta_mean_motion": 14.09667545,
        "meta_eccentricity": 0.00346079,
        "meta_inclination": 98.7273,
        "meta_ra_of_asc_node": 343.7532,
        "meta_arg_of_pericenter": 259.2618,
        "meta_mean_anomaly": 212.8609,
        "meta_ephemeris_type": 0,
        "meta_classification_type": "U",
        "meta_norad_cat_id": 29943,
        "meta_element_set_no": 999,
        "meta_rev_at_epoch": 97150,
        "meta_bstar": 1.4487465e-05,
        "meta_mean_motion_dot": -1.7e-07,
        "meta_mean_motion_ddot": 0,
        "tle_line1": "1 29943U 99025JR  25335.65725825 -.00000017  00000+0  14487-4 0  9996",
        "tle_line2": "2 29943  98.7273 343.7532 0034607 259.2618 212.8609 14.09667545971502"
      },
      "geometry": {
        "type": "Point",
        "coordinates": [
          -11.965709339754794,
          -22.720215915074608
        ]
      }
    },
    {
      "type": "Feature",
      "properties": {
        "norad_id": 29944,
        "name": "FENGYUN 1C DEB",
        "group": "fengyun-1c-debris",
        "lat": 76.25684083801,
        "lon": 129.35122565963837,
        "alt_km": 712.1205071958148,
        "timestamp": "2025-12-02T06:27:53.286151+00:00",
        "meta_object_name": "FENGYUN 1C DEB",
        "meta_object_id": "1999-025JS",
        "meta_epoch": "2025-12-01T18:42:03.983328",
        "meta_mean_motion": 14.87194968,
        "meta_eccentricity": 0.0166981,
        "meta_inclination": 99.0016,
        "meta_ra_of_asc_node": 268.3932,
        "meta_arg_of_pericenter": 267.2514,
        "meta_mean_anomaly": 90.9577,
        "meta_ephemeris_type": 0,
        "meta_classification_type": "U",
        "meta_norad_cat_id": 29944,
        "meta_element_set_no": 999,
        "meta_rev_at_epoch": 291,
        "meta_bstar": 0.00095506,
        "meta_mean_motion_dot": 0.0001104,
        "meta_mean_motion_ddot": 0,
        "tle_line1": "1 29944U 99025JS  25335.77921277  .00011040  00000+0  95506-3 0  9996",
        "tle_line2": "2 29944  99.0016 268.3932 0166981 267.2514  90.9577 14.87194968  2912"
      },
      "geometry": {
        "type": "Point",
        "coordinates": [
          129.35122565963837,
          76.25684083801
        ]
      }
    }
  ]
}